NORAD_CAT_ID,OBJECT_NAME,OBJECT_TYPE,EPOCH,MEAN_MOTION,ECCENTRICITY,INCLINATION,RA_OF_ASC_NODE,ARG_OF_PERICENTER,MEAN_ANOMALY,BSTAR,MEAN_MOTION_DOT,MEAN_MOTION_DDOT,TLE_LINE0,TLE_LINE1,TLE_LINE2,SEMIMAJOR_AXIS,PERIOD,APOGEE,PERIGEE,DECAYED
51815.0,STARLINK-3604,PAYLOAD,2023-03-02 19:14:40,15.08855644,0.0001392,53.2137,240.1777,79.3858,280.7291,0.00053265,8.203e-05,0.0,0 STARLINK-3604,1 51815U 22017AZ  23061.80185760  .00008203  00000-0  53265-3 0  9996,2 51815  53.2137 240.1777 0001392  79.3858 280.7291 15.08855644 57586,6917.833,95.437,540.661,538.735,0.0
51815.0,STARLINK-3604,PAYLOAD,2023-03-03 04:46:59,15.08858616,0.0001243,53.2124,238.3933,80.0189,280.0943,0.00064105,9.934e-05,0.0,0 STARLINK-3604,1 51815U 22017AZ  23062.19929521  .00009934  00000-0  64105-3 0  9997,2 51815  53.2124 238.3933 0001243  80.0189 280.0943 15.08858616 57765,6917.823,95.436,540.548,538.829,0.0
51815.0,STARLINK-3604,PAYLOAD,2023-03-03 11:08:31,15.08858458,0.0001463,53.212,237.2037,80.7499,279.3659,0.00060426,9.347e-05,0.0,0 STARLINK-3604,1 51815U 22017AZ  23062.46425442  .00009347  00000-0  60426-3 0  9990,2 51815  53.2120 237.2037 0001463  80.7499 279.3659 15.08858458 57689,6917.824,95.436,540.701,538.677,0.0
51815.0,STARLINK-3604,PAYLOAD,2023-03-04 10:59:18,15.08860206,0.0002734,53.2116,232.7431,83.1862,276.9441,0.0010046,0.00015746,0.0,0 STARLINK-3604,1 51815U 22017AZ  23063.45785425  .00015746  00000-0  10046-2 0  9992,2 51815  53.2116 232.7431 0002734  83.1862 276.9441 15.08860206 57951,6917.819,95.436,541.575,537.792,0.0
51815.0,STARLINK-3604,PAYLOAD,2023-03-04 17:20:50,15.08852585,0.0002128,53.2087,231.5531,87.1541,272.9694,0.00056146,8.662e-05,0.0,0 STARLINK-3604,1 51815U 22017AZ  23063.72281145  .00008662  00000-0  56146-3 0  9993,2 51815  53.2087 231.5531 0002128  87.1541 272.9694 15.08852585 57992,6917.842,95.437,541.179,538.235,0.0
51815.0,STARLINK-3604,PAYLOAD,2023-03-04 20:31:36,15.08850638,0.0001188,53.2127,230.9584,95.0909,265.0219,0.00043533,6.649e-05,0.0,0 STARLINK-3604,1 51815U 22017AZ  23063.85528906  .00006649  00000-0  43533-3 0  9995,2 51815  53.2127 230.9584 0001188  95.0909 265.0219 15.08850638 57891,6917.848,95.437,540.535,538.891,0.0
51815.0,STARLINK-3604,PAYLOAD,2023-03-05 10:50:05,15.0883438,0.0001268,53.2125,228.2821,78.1938,281.9196,0.00021741,3.173e-05,0.0,0 STARLINK-3604,1 51815U 22017AZ  23064.45145690  .00003173  00000-0  21741-3 0  9993,2 51815  53.2125 228.2821 0001268  78.1938 281.9196 15.08834380 58108,6917.898,95.438,540.64,538.885,0.0
51815.0,STARLINK-3604,PAYLOAD,2023-03-05 17:11:38,15.08841622,0.0001435,53.2122,227.0927,80.6936,279.4219,0.00030076,4.502e-05,0.0,0 STARLINK-3604,1 51815U 22017AZ  23064.71641671  .00004502  00000-0  30076-3 0  9990,2 51815  53.2122 227.0927 0001435  80.6936 279.4219 15.08841622 58027,6917.875,95.437,540.733,538.748,0.0
51815.0,STARLINK-3604,PAYLOAD,2023-03-06 17:02:25,15.08849402,0.0001388,53.2141,222.6331,84.7318,275.3832,0.00039754,6.046e-05,0.0,0 STARLINK-3604,1 51815U 22017AZ  23065.71001534  .00006046  00000-0  39754-3 0  9996,2 51815  53.2141 222.6331 0001388  84.7318 275.3832 15.08849402 58293,6917.852,95.437,540.677,538.756,0.0
51815.0,STARLINK-3604,PAYLOAD,2023-03-07 10:31:39,15.08843358,0.0001268,53.2135,219.3609,87.7613,272.3524,0.00012559,1.712e-05,0.0,0 STARLINK-3604,1 51815U 22017AZ  23066.43865478  .00001712  00000-0  12559-3 0  9990,2 51815  53.2135 219.3609 0001268  87.7613 272.3524 15.08843358 58407,6917.87,95.437,540.612,538.858,0.0
51815.0,STARLINK-3604,PAYLOAD,2023-03-07 16:53:12,15.08857242,0.0001111,53.2136,218.1715,83.0757,277.0361,0.00054751,8.441e-05,0.0,0 STARLINK-3604,1 51815U 22017AZ  23066.70361124  .00008441  00000-0  54751-3 0  9995,2 51815  53.2136 218.1715 0001111  83.0757 277.0361 15.08857242 58440,6917.828,95.436,540.461,538.924,0.0
51815.0,STARLINK-3604,PAYLOAD,2023-03-08 02:25:30,15.08857358,3.97e-05,53.2153,216.3865,5.4146,354.685,0.00051559,7.931e-05,0.0,0 STARLINK-3604,1 51815U 22017AZ  23067.10104830  .00007931  00000-0  51559-3 0  9995,2 51815  53.2153 216.3865 0000397   5.4146 354.6850 15.08857358 58500,6917.827,95.436,539.967,539.418,0.0
51815.0,STARLINK-3604,PAYLOAD,2023-03-08 10:22:27,15.088288,0.000133,53.2123,214.9002,97.5189,262.5955,-0.00018255,-3.191e-05,0.0,0 STARLINK-3604,1 51815U 22017AZ  23067.43225746 -.00003191  00000-0 -18255-3 0  9993,2 51815  53.2123 214.9002 0001330  97.5189 262.5955 15.08828800 58559,6917.915,95.438,540.7,538.86,0.0
51815.0,STARLINK-3604,PAYLOAD,2023-03-08 18:19:22,15.08845979,0.0001377,53.2139,213.4124,94.5325,265.5825,0.00044813,6.852e-05,0.0,0 STARLINK-3604,1 51815U 22017AZ  23067.76345461  .00006852  00000-0  44813-3 0  9990,2 51815  53.2139 213.4124 0001377  94.5325 265.5825 15.08845979 58606,6917.862,95.437,540.68,538.775,0.0
51815.0,STARLINK-3604,PAYLOAD,2023-03-08 19:54:45,15.08849264,0.0001323,53.2143,213.1158,98.6904,261.4238,0.00061664,9.542e-05,0.0,0 STARLINK-3604,1 51815U 22017AZ  23067.82969504  .00009542  00000-0  61664-3 0  9999,2 51815  53.2143 213.1158 0001323  98.6904 261.4238 15.08849264 58495,6917.852,95.437,540.632,538.802,0.0
51815.0,STARLINK-3604,PAYLOAD,2023-03-09 16:34:46,15.08860137,7.97e-05,53.2141,209.2484,62.3527,297.7546,0.00085269,0.00013316,0.0,0 STARLINK-3604,1 51815U 22017AZ  23068.69081226  .00013316  00000-0  85269-3 0  9992,2 51815  53.2141 209.2484 0000797  62.3527 297.7546 15.08860137 58625,6917.819,95.436,540.235,539.132,0.0
51815.0,STARLINK-3604,PAYLOAD,2023-03-10 18:00:56,15.08845888,0.0001046,53.2146,204.4923,69.8453,290.2652,0.00032293,4.856e-05,0.0,0 STARLINK-3604,1 51815U 22017AZ  23069.75065577  .00004856  00000-0  32293-3 0  9999,2 51815  53.2146 204.4923 0001046  69.8453 290.2652 15.08845888 58906,6917.862,95.437,540.451,539.004,0.0
51815.0,STARLINK-3604,PAYLOAD,2023-03-11 01:57:53,15.08825773,0.0002878,53.2147,203.0055,98.4816,261.6502,8.6773e-06,-1.51e-06,0.0,0 STARLINK-3604,1 51815U 22017AZ  23070.08186540 -.00000151  00000-0  86773-5 0  9990,2 51815  53.2147 203.0055 0002878  98.4816 261.6502 15.08825773 58955,6917.924,95.438,541.78,537.798,0.0
51815.0,STARLINK-3604,PAYLOAD,2023-03-11 08:19:25,15.08830512,0.0002016,53.2145,201.8188,99.7172,260.4048,-7.9586e-05,-1.554e-05,0.0,0 STARLINK-3604,1 51815U 22017AZ  23070.34682450 -.00001554  00000-0 -79586-4 0  9992,2 51815  53.2145 201.8188 0002016  99.7172 260.4048 15.08830512 58879,6917.909,95.438,541.169,538.38,0.0
51815.0,STARLINK-3604,PAYLOAD,2023-03-11 14:40:57,15.08840945,0.0001569,53.2162,200.628,114.1695,245.9462,-9.4653e-05,-1.794e-05,0.0,0 STARLINK-3604,1 51815U 22017AZ  23070.61177818 -.00001794  00000-0 -94653-4 0  9997,2 51815  53.2162 200.6280 0001569 114.1695 245.9462 15.08840945 59030,6917.878,95.437,540.828,538.657,0.0
51815.0,STARLINK-3604,PAYLOAD,2023-03-11 16:16:20,15.08849404,0.000126,53.2163,200.329,93.0807,267.0329,1.4068e-05,-6.4e-07,0.0,0 STARLINK-3604,1 51815U 22017AZ  23070.67801418 -.00000064  00000-0  14068-4 0  9993,2 51815  53.2163 200.3290 0001260  93.0807 267.0329 15.08849404 58920,6917.852,95.437,540.588,538.845,0.0
51815.0,STARLINK-3604,PAYLOAD,2023-03-12 08:10:13,15.08824611,0.0001722,53.2163,197.3598,88.7442,271.3747,9.4223e-05,1.211e-05,0.0,0 STARLINK-3604,1 51815U 22017AZ  23071.34043550  .00001211  00000-0  94223-4 0  9998,2 51815  53.2163 197.3598 0001722  88.7442 271.3747 15.08824611 59145,6917.927,95.439,540.984,538.601,0.0
51815.0,STARLINK-3604,PAYLOAD,2023-03-12 12:56:23,15.08825997,0.0001824,53.2161,196.4675,91.9161,268.204,0.00010632,1.404e-05,0.0,0 STARLINK-3604,1 51815U 22017AZ  23071.53915682  .00001404  00000-0  10632-3 0  9998,2 51815  53.2161 196.4675 0001824  91.9161 268.2040 15.08825997 59055,6917.923,95.438,541.05,538.526,0.0
51815.0,STARLINK-3604,PAYLOAD,2023-03-13 08:01:00,15.08837926,0.0001691,53.2157,192.8988,89.9951,270.1235,0.00023626,3.474e-05,0.0,0 STARLINK-3604,1 51815U 22017AZ  23072.33403591  .00003474  00000-0  23626-3 0  9994,2 51815  53.2157 192.8988 0001691  89.9951 270.1235 15.08837926 59292,6917.887,95.438,540.922,538.582,0.0
51815.0,STARLINK-3604,PAYLOAD,2023-03-13 11:11:46,15.08840693,0.0001735,53.2158,192.3037,100.8193,259.2995,0.00025099,3.709e-05,0.0,0 STARLINK-3604,1 51815U 22017AZ  23072.46651423  .00003709  00000-0  25099-3 0  9994,2 51815  53.2158 192.3037 0001735 100.8193 259.2995 15.08840693 59198,6917.878,95.438,540.944,538.543,0.0
51815.0,STARLINK-3604,PAYLOAD,2023-03-14 11:02:33,15.08846497,0.0001434,53.2146,187.8408,106.9033,253.2116,0.00020576,2.989e-05,0.0,0 STARLINK-3604,1 51815U 22017AZ  23073.46011101  .00002989  00000-0  20576-3 0  9992,2 51815  53.2146 187.8408 0001434 106.9033 253.2116 15.08846497 59469,6917.861,95.437,540.718,538.734,0.0
51815.0,STARLINK-3604,PAYLOAD,2023-03-14 14:13:19,15.08853684,0.0001024,53.2165,187.2467,94.4268,265.6841,0.00028629,4.273e-05,0.0,0 STARLINK-3604,1 51815U 22017AZ  23073.59258664  .00004273  00000-0  28629-3 0  9998,2 51815  53.2165 187.2467 0001024  94.4268 265.6841 15.08853684 59362,6917.839,95.437,540.412,538.995,0.0
51815.0,STARLINK-3604,PAYLOAD,2023-03-14 15:48:42,15.08858569,0.0001218,53.2151,186.948,97.2071,262.9059,0.00036115,5.467e-05,0.0,0 STARLINK-3604,1 51815U 22017AZ  23073.65882720  .00005467  00000-0  36115-3 0  9996,2 51815  53.2151 186.9480 0001218  97.2071 262.9059 15.08858569 59375,6917.824,95.436,540.531,538.846,0.0
51815.0,STARLINK-3604,PAYLOAD,2023-03-15 12:28:42,15.08863277,0.0001178,53.2163,183.0851,77.7907,282.3217,0.00026414,3.921e-05,0.0,0 STARLINK-3604,1 51815U 22017AZ  23074.51993637  .00003921  00000-0  26414-3 0  9996,2 51815  53.2163 183.0851 0001178  77.7907 282.3217 15.08863277 59503,6917.809,95.436,540.489,538.859,0.0
51815.0,STARLINK-3604,PAYLOAD,2023-03-15 23:36:24,15.08855117,0.0001092,53.2163,181.0014,85.8153,274.2964,3.4553e-05,2.62e-06,0.0,0 STARLINK-3604,1 51815U 22017AZ  23074.98361561  .00000262  00000-0  34553-4 0  9991,2 51815  53.2163 181.0014 0001092  85.8153 274.2964 15.08855117 59693,6917.834,95.437,540.455,538.944,0.0
